IRIDIUM 26 [-]          
1 24903U 97043A   23295.70353414  .00000547  00000+0  18162-3 0  9995
2 24903  86.4012   3.8184 0001998  90.6086 269.5339 14.36050387370106
IRIDIUM 22 [-]          
1 24907U 97043E   23295.92478990  .00000615  00000+0  20950-3 0  9994
2 24907  86.4017   6.7714 0002224  92.2070 267.9380 14.34958522370238
DUMMY MASS 1 [-]        
1 24925U 97048A   23295.82135693  .00000889  00000+0  98851-4 0  9997
2 24925  86.3359  54.0700 0008918 115.5544 244.6604 14.85888172415744
DUMMY MASS 2 [-]        
1 24926U 97048B   23295.81946491  .00000900  00000+0  10069-3 0  9991
2 24926  86.3356  55.5724 0009518 124.8014 235.4107 14.85649259415530
IRIDIUM 29 [-]          
1 24944U 97051A   23295.79399259  .00000504  00000+0  16893-3 0  9997
2 24944  86.3999  36.7913 0002361  90.3241 269.8226 14.35414456366680
IRIDIUM 33 [-]          
1 24946U 97051C   23295.81371799  .00000556  00000+0  19171-3 0  9990
2 24946  86.3915  36.0580 0006044 238.4913 121.5693 14.34152999366240
IRIDIUM 28 [-]          
1 24948U 97051E   23295.81552072  .00000780  00000+0  25997-3 0  9999
2 24948  86.4008  34.6457 0001727  95.0797 265.0597 14.36353145367272
